STARLINK-31158          
1 58854U 24019B   24096.47269685 -.00000399  00000+0 -54237-5 0  9992
2 58854  42.9988 253.5056 0001609 286.5063  73.5611 15.25918400 11611
STARLINK-31237          
1 58855U 24019C   24096.46817668  .00014513  00000+0  56311-3 0  9996
2 58855  42.9986 253.4903 0000762 301.0901  58.9875 15.25936189 11616
STARLINK-31244          
1 58856U 24019D   24096.48852825  .00003719  00000+0  15190-3 0  9999
2 58856  42.9993 253.6357 0001238 282.8733  77.1979 15.25915095 11619
STARLINK-31216          
1 58857U 24019E   24096.50648109  .00003042  00000+0  12608-3 0  9991
2 58857  42.9999 252.8881 0002200 287.5449  72.5162 15.25913919 11600
STARLINK-31226          
1 58858U 24019F   24096.47948074 -.00002810  00000+0 -97590-4 0  9990
2 58858  43.0001 253.5587 0001315 285.8873  74.1833 15.25920287 11616
STARLINK-31197          
1 58859U 24019G   24096.49758636  .00000299  00000+0  21264-4 0  9998
2 58859  43.0008 253.7088 0001371 275.8331  84.2363 15.25905575 11615
STARLINK-31213          
1 58860U 24019H   24096.51115310  .00000313  00000+0  21813-4 0  9996
2 58860  43.0010 253.8127 0002082 285.0761  74.9860 15.25922943 11611
STARLINK-31199          
1 58861U 24019J   24096.48627018  .00000511  00000+0  29394-4 0  9998
2 58861  43.0018 253.6167 0001669 281.3084  78.7579 15.25898870 11619
STARLINK-31200          
1 58862U 24019K   24096.47043405 -.00000110  00000+0  56540-5 0  9990
2 58862  42.9999 253.4894 0001428 295.4466  64.6238 15.25922527 11617
STARLINK-31149          
1 58863U 24019L   24096.45926340  .00001285  00000+0  58945-4 0  9990
2 58863  42.9948 254.2817 0001062 314.2127  45.8636 15.25922806 11606
STARLINK-31242          
1 58864U 24019M   24096.49531767  .00000001  00000+0  98746-5 0  9999
2 58864  43.0022 253.6906 0001097 268.9429  91.1296 15.25920055 11613
STARLINK-31223          
1 58865U 24019N   24096.46590980 -.00000855  00000+0 -22851-4 0  9991
2 58865  43.0001 253.4599 0001886 289.7863  70.2785 15.25909455 11595
STARLINK-31219          
1 58866U 24019P   24096.51342051 -.00000366  00000+0 -41578-5 0  9997
2 58866  42.9975 253.8324 0001643 298.6012  61.4673 15.25911231 11593
STARLINK-31198          
1 58867U 24019Q   24096.48174234 -.00007532  00000+0 -27844-3 0  9990
2 58867  42.9963 253.5587 0001006 286.8954  73.1787 15.25904195 11593
STARLINK-31196          
1 58868U 24019R   24096.48400919 -.00000302  00000+0 -17113-5 0  9991
2 58868  43.0001 253.5978 0001797 275.5726  84.4920 15.25915276 11598
STARLINK-31203          
1 58869U 24019S   24096.49238299  .00008712  00000+0  28543-3 0  9991
2 58869  42.9963 249.3419 0001846 305.5605  54.5076 15.31897210 11664
STARLINK-31201          
1 58870U 24019T   24096.58564363 -.00004946  00000+0 -17919-3 0  9999
2 58870  42.9991 253.5116 0000914 294.4106  65.6649 15.25946106 11600
STARLINK-31214          
1 58871U 24019U   24096.44343772  .00019799  00000+0  76458-3 0  9997
2 58871  42.9995 254.1655 0001932 265.0536  95.0095 15.25914576 11587
STARLINK-31215          
1 58872U 24019V   24096.50210588  .00009840  00000+0  38535-3 0  9993
2 58872  42.9995 253.7445 0001735 288.8688  71.1975 15.25924013 11592
STARLINK-31177          
1 58873U 24019W   24096.46364998 -.00007440  00000+0 -27491-3 0  9999
2 58873  43.0002 253.4403 0002124 266.9191  93.1417 15.25901487 11612
STARLINK-30945          
1 58874U 24019X   24096.47722398  .00003212  00000+0  13256-3 0  9998
2 58874  43.0024 253.5256 0002454 284.2356  75.8222 15.25917618 11610
STARLINK-31212          
1 58875U 24019Y   24096.45024608 -.00001787  00000+0 -58530-4 0  9998
2 58875  43.0022 254.2181 0001646 284.1367  75.9301 15.25884700 11587
STARLINK-31306          
1 58876U 24020A   24096.41325694  .00007874  00000+0  29646-3 0  9992
2 58876  53.1591 349.2721 0000078 170.3320 189.7681 15.28037669 11570
STARLINK-31326          
1 58877U 24020B   24096.10506127  .00005430  00000+0  20848-3 0  9992
2 58877  53.1597 349.4834 0000903  74.5790 285.5310 15.28030511 10366
STARLINK-31300          
1 58878U 24020C   24096.40858644  .00003504  00000+0  13911-3 0  9993
2 58878  53.1580 349.2406 0001216  96.2197 263.8942 15.28014924 10395
STARLINK-31296          
1 58879U 24020D   24096.40423421  .00005414  00000+0  20789-3 0  9998
2 58879  53.1589 349.2156 0002626  82.6921 277.4377 15.28035158 10392
STARLINK-31328          
1 58880U 24020E   24096.09903031  .00004071  00000+0  15945-3 0  9991
2 58880  53.1593 344.3728 0000982  94.1746 265.9366 15.28043282 10438
STARLINK-31260          
1 58881U 24020F   24096.40389344  .00006560  00000+0  24913-3 0  9992
2 58881  53.1578 349.2152 0001294  85.3381 274.7766 15.28039428 10395
STARLINK-31323          
1 58882U 24020G   24096.39954950  .00010436  00000+0  38858-3 0  9992
2 58882  53.1563 349.1895 0000753 115.8991 244.2087 15.28047049 10394
STARLINK-31209          
1 58883U 24020H   24096.39922013  .00005623  00000+0  21537-3 0  9996
2 58883  53.1568 349.1853 0000501  78.9754 281.1303 15.28038847 10398
STARLINK-31315          
1 58884U 24020J   24096.64276771 -.00064687  00000+0 -14384-2 0  9996
2 58884  53.1596 336.3566 0000208 123.6203 236.4823 15.43199409 10591
STARLINK-31318          
1 58885U 24020K   24096.41817172  .00001651  00000+0  72225-4 0  9998
2 58885  53.1612 348.5810 0001435  86.5103 273.6061 15.28033034 10408
STARLINK-31320          
1 58886U 24020L   24096.39486221  .00001152  00000+0  54216-4 0  9999
2 58886  53.1570 349.1565 0000788 123.0558 237.0517 15.28044758 10390
STARLINK-31321          
1 58887U 24020M   24095.99773832  .00006747  00000+0  25577-3 0  9994
2 58887  53.1569 350.9461 0000999 100.8020 259.3092 15.28051997 11495
STARLINK-30970          
1 58888U 24020N   24096.58334491  .00116925  00000+0  41694-2 0  9992
2 58888  53.1617 348.0349 0001192  94.2534 353.7486 15.28007323  5881
STARLINK-31007          
1 58889U 24020P   24095.99741610  .00011589  00000+0  43005-3 0  9991
2 58889  53.1566 350.9443 0000974 124.1708 235.9384 15.28047889 10330
STARLINK-31230          
1 58890U 24020Q   24095.99307133  .00007277  00000+0  27497-3 0  9997
2 58890  53.1569 350.9164 0000675  97.7895 262.3181 15.28037445 10331
STARLINK-31245          
1 58891U 24020R   24096.37754218  .00125809  00000+0  86873-3 0  9996
2 58891  53.1518 328.7434 0001995  50.2345 309.8850 15.73695723 11834
STARLINK-31254          
1 58892U 24020S   24095.99273176  .00006538  00000+0  24863-3 0  9991
2 58892  53.1592 350.9125 0001128 100.9991 259.1136 15.28000245 11494
STARLINK-31255          
1 58893U 24020T   24095.98839584  .00007014  00000+0  26549-3 0  9995
2 58893  53.1578 350.8830 0001146 109.7119 250.4005 15.28041246 10337
STARLINK-31243          
1 58894U 24020U   24096.11886624  .00004355  00000+0  16975-3 0  9996
2 58894  53.1597 350.2757 0001157 120.3100 239.8015 15.28028777 10350
STARLINK-31218          
1 58895U 24020V   24096.11452446  .00004395  00000+0  17118-3 0  9992
2 58895  53.1597 350.2494 0000893  85.2907 274.8195 15.28028016 10353
STARLINK-31221          
1 58896U 24020W   24096.11418106  .00005992  00000+0  22866-3 0  9998
2 58896  53.1600 350.2471 0001197  77.9289 282.1845 15.28043570 10359
STARLINK-31190          
1 58897U 24020X   24096.43688061 -.00002112  00000+0 -63595-4 0  9991
2 58897  53.1605 348.7089 0000998  79.7371 280.3741 15.28031743 10402
STARLINK-31317          
1 58931U 24027A   24096.36795014 -.00004373  00000+0 -14526-3 0  9996
2 58931  53.1578 335.2886 0000990 124.0739 236.0355 15.28029105  9507
STARLINK-31378          
1 58932U 24027B   24096.36761195 -.00004482  00000+0 -14926-3 0  9995
2 58932  53.1572 335.2867 0000876 111.7542 248.3551 15.28016124  9667
STARLINK-31350          
1 58933U 24027C   24096.36293802  .00011147  00000+0  41425-3 0  9999
2 58933  53.1574 335.2555 0001491 100.4395 259.6772 15.28038851  9660
STARLINK-31337          
1 58934U 24027D   24096.36327163  .00001816  00000+0  78168-4 0  9995
2 58934  53.1574 335.2569 0001931  92.1527 267.9694 15.28041502  9661
STARLINK-31362          
1 58935U 24027E   24096.35859099 -.00004232  00000+0 -14018-3 0  9993
2 58935  53.1567 335.2308 0001736 101.6291 258.4903 15.28019638  9665
STARLINK-31383          
1 58936U 24027F   24096.35825908  .00030456  00000+0  11063-2 0  9997
2 58936  53.1560 335.2260 0000580  87.1031 273.0035 15.28061749  9661
STARLINK-31390          
1 58937U 24027G   24096.35391867  .00013056  00000+0  48285-3 0  9994
2 58937  53.1557 335.1975 0000428 112.3765 247.7280 15.28042795  9666
STARLINK-31377          
1 58938U 24027H   24096.35357296  .00003554  00000+0  14083-3 0  9994
2 58938  53.1587 335.1975 0000640 106.4598 253.6472 15.28033318  9664
STARLINK-31372          
1 58939U 24027J   24095.95679829  .00031192  00000+0  11326-2 0  9994
2 58939  53.1572 336.9888 0000405 160.0384 200.0632 15.28061424  9606
STARLINK-31371          
1 58940U 24027K   24096.08725039  .00006169  00000+0  23492-3 0  9990
2 58940  53.1582 336.3763 0000583  95.4196 264.6870 15.28055005  9624
STARLINK-31345          
1 58941U 24027L   24096.08294094  .00038749  00000+0  14025-2 0  9993
2 58941  53.1572 336.3513 0000690  54.6113 305.4952 15.28062498  9621
STARLINK-31354          
1 58942U 24027M   24096.08259147  .00016819  00000+0  61811-3 0  9994
2 58942  53.1572 336.3469 0000515  71.2539 288.8517 15.28040490  9624
STARLINK-31346          
1 58943U 24027N   24096.07823541  .00043988  00000+0  15872-2 0  9991
2 58943  53.1575 336.3212 0000977  89.8993 270.2119 15.28105833  9621
STARLINK-31336          
1 58944U 24027P   24095.94709822  .00003970  00000+0  15581-3 0  9997
2 58944  53.1581 336.9225 0000249 290.6927  69.4046 15.28040664  9447
STARLINK-31359          
1 58945U 24027Q   24096.38637999  .00002838  00000+0  11502-3 0  9993
2 58945  53.1622 333.2543 0000950  71.8191 288.2912 15.28033445  9709
